$$SOE
2461295.500000000, A.D. 2026-Sep-12 00:00:00.0000, 1.219425919644891E+08, 2.358104849705425E+08, -6.540651033692554E+06,
2461302.500000000, A.D. 2026-Sep-19 00:00:00.0000, 1.137883622669867E+08, 2.474745379318616E+08, -7.204180520424321E+06,
2461309.500000000, A.D. 2026-Sep-26 00:00:00.0000, 1.053606392684925E+08, 2.585447567656562E+08, -7.850430998861119E+06,
2461316.500000000, A.D. 2026-Oct-03 00:00:00.0000, 9.669777003529891E+07, 2.690389122732059E+08, -8.479196366150290E+06,
2461323.500000000, A.D. 2026-Oct-10 00:00:00.0000, 8.783391773848425E+07, 2.789748412928064E+08, -9.090373471107796E+06,
2461330.500000000, A.D. 2026-Oct-17 00:00:00.0000, 7.879956582372893E+07, 2.883702123339914E+08, -9.683940618309140E+06,
2461337.500000000, A.D. 2026-Oct-24 00:00:00.0000, 6.962196239874031E+07, 2.972423585389177E+08, -1.025994021720310E+07,
2461344.500000000, A.D. 2026-Oct-31 00:00:00.0000, 6.032551033953933E+07, 3.056081615447251E+08, -1.081846480469516E+07,
2461351.500000000, A.D. 2026-Nov-07 00:00:00.0000, 5.093210916619514E+07, 3.134839737462070E+08, -1.135964582492825E+07,
2461358.500000000, A.D. 2026-Nov-14 00:00:00.0000, 4.146145448594509E+07, 3.208855702160936E+08, -1.188364459246257E+07,
2461365.500000000, A.D. 2026-Nov-21 00:00:00.0000, 3.193129844584257E+07, 3.278281236010887E+08, -1.239064479730143E+07,
2461372.500000000, A.D. 2026-Nov-28 00:00:00.0000, 2.235767498096563E+07, 3.343261933500960E+08, -1.288084636448602E+07,
2461379.500000000, A.D. 2026-Dec-05 00:00:00.0000, 1.275509774397102E+07, 3.403937243358087E+08, -1.335446077699059E+07,
2461386.500000000, A.D. 2026-Dec-12 00:00:00.0000, 3.136734656104521E+06, 3.460440547403359E+08, -1.381170740157057E+07,
2461393.500000000, A.D. 2026-Dec-19 00:00:00.0000, -6.485439502649373E+06, 3.512899307528017E+08, -1.425281046489459E+07,
2461400.500000000, A.D. 2026-Dec-26 00:00:00.0000, -1.610050973133602E+07, 3.561435253612797E+08, -1.467799659388167E+07,
2461407.500000000, A.D. 2027-Jan-02 00:00:00.0000, -2.569850390033963E+07, 3.606164596614558E+08, -1.508749284612592E+07,
2461414.500000000, A.D. 2027-Jan-09 00:00:00.0000, -3.527029002005825E+07, 3.647198256631315E+08, -1.548152514681152E+07,
2461421.500000000, A.D. 2027-Jan-16 00:00:00.0000, -4.480748578621066E+07, 3.684642098299642E+08, -1.586031705948235E+07,
2461428.500000000, A.D. 2027-Jan-23 00:00:00.0000, -5.430237874861643E+07, 3.718597167434751E+08, -1.622408883705629E+07,
2461435.500000000, A.D. 2027-Jan-30 00:00:00.0000, -6.374785552980898E+07, 3.749159924295242E+08, -1.657305672450607E+07,
2461442.500000000, A.D. 2027-Feb-06 00:00:00.0000, -7.313733847366056E+07, 3.776422473909785E+08, -1.690743248388322E+07,
2461449.500000000, A.D. 2027-Feb-13 00:00:00.0000, -8.246472915348531E+07, 3.800472803605988E+08, -1.722742296706314E+07,
2461456.500000000, A.D. 2027-Feb-20 00:00:00.0000, -9.172436021062699E+07, 3.821395018443868E+08, -1.753322955755876E+07,
2461463.500000000, A.D. 2027-Feb-27 00:00:00.0000, -1.009109533557606E+08, 3.839269541465313E+08, -1.782504784925291E+07,
2461470.500000000, A.D. 2027-Mar-06 00:00:00.0000, -1.100195798535478E+08, 3.854173297459253E+08, -1.810306766326793E+07,
2461477.500000000, A.D. 2027-Mar-13 00:00:00.0000, -1.190456245150814E+08, 3.866179900572315E+08, -1.836747307498975E+07,
2461484.500000000, A.D. 2027-Mar-20 00:00:00.0000, -1.279847538243416E+08, 3.875359837416443E+08, -1.861844240416487E+07,
2461491.500000000, A.D. 2027-Mar-27 00:00:00.0000, -1.368328875606150E+08, 3.881780640314510E+08, -1.885614822147514E+07,
2461498.500000000, A.D. 2027-Apr-03 00:00:00.0000, -1.455861733349741E+08, 3.885507050456319E+08, -1.908075738602325E+07,
2461505.500000000, A.D. 2027-Apr-10 00:00:00.0000, -1.542409636488819E+08, 3.886601171525680E+08, -1.929243111091217E+07,
2461512.500000000, A.D. 2027-Apr-17 00:00:00.0000, -1.627937951637407E+08, 3.885122614035363E+08, -1.949132505475314E+07,
2461519.500000000, A.D. 2027-Apr-24 00:00:00.0000, -1.712413698490014E+08, 3.881128630157157E+08, -1.967758944703481E+07,
2461526.500000000, A.D. 2027-May-01 00:00:00.0000, -1.795805374872484E+08, 3.874674239748115E+08, -1.985136926891352E+07,
2461533.500000000, A.D. 2027-May-08 00:00:00.0000, -1.878082790343608E+08, 3.865812355487055E+08, -2.001280445350099E+07,
2461540.500000000, A.D. 2027-May-15 00:00:00.0000, -1.959216921608635E+08, 3.854593917098511E+08, -2.016202988830791E+07,
2461547.500000000, A.D. 2027-May-22 00:00:00.0000, -2.039179803853604E+08, 3.841068009181899E+08, -2.029917528646745E+07,
2461554.500000000, A.D. 2027-May-29 00:00:00.0000, -2.117944423080954E+08, 3.825281948337270E+08, -2.042436535223782E+07,
2461561.500000000, A.D. 2027-Jun-05 00:00:00.0000, -2.195484599438258E+08, 3.807281371284033E+08, -2.053772006444560E+07,
2461568.500000000, A.D. 2027-Jun-12 00:00:00.0000, -2.271774880578881E+08, 3.787110328696960E+08, -2.063935485789262E+07,
2461575.500000000, A.D. 2027-Jun-19 00:00:00.0000, -2.346790447420439E+08, 3.764811375778542E+08, -2.072938074795268E+07,
2461582.500000000, A.D. 2027-Jun-26 00:00:00.0000, -2.420507028670155E+08, 3.740425657293363E+08, -2.080790444443627E+07,
2461589.500000000, A.D. 2027-Jul-03 00:00:00.0000, -2.492900822054655E+08, 3.713992987473587E+08, -2.087502846546295E+07,
2461596.500000000, A.D. 2027-Jul-10 00:00:00.0000, -2.563948421223326E+08, 3.685551925197648E+08, -2.093085125349580E+07,
2461603.500000000, A.D. 2027-Jul-17 00:00:00.0000, -2.633626747364976E+08, 3.655139844355699E+08, -2.097546729965454E+07,
2461610.500000000, A.D. 2027-Jul-24 00:00:00.0000, -2.701912983430932E+08, 3.622792999061409E+08, -2.100896729546505E+07,
2461617.500000000, A.D. 2027-Jul-31 00:00:00.0000, -2.768784506352866E+08, 3.588546586333984E+08, -2.103143833018339E+07,
2461624.500000000, A.D. 2027-Aug-07 00:00:00.0000, -2.834218818810322E+08, 3.552434818015729E+08, -2.104296402080889E+07,
2461631.500000000, A.D. 2027-Aug-14 00:00:00.0000, -2.898193503153114E+08, 3.514490999629698E+08, -2.104362438427101E+07,
2461638.500000000, A.D. 2027-Aug-21 00:00:00.0000, -2.960686190915171E+08, 3.474747582754473E+08, -2.103349578313234E+07,
2461645.500000000, A.D. 2027-Aug-28 00:00:00.0000, -3.021674513271101E+08, 3.433236203129977E+08, -2.101265116057464E+07,
2461652.500000000, A.D. 2027-Sep-04 00:00:00.0000, -3.081136043983017E+08, 3.389987729724168E+08, -2.098116025225638E+07,
2461659.500000000, A.D. 2027-Sep-11 00:00:00.0000, -3.139048248539371E+08, 3.345032318391550E+08, -2.093908970222692E+07,
2461666.500000000, A.D. 2027-Sep-18 00:00:00.0000, -3.195388437891312E+08, 3.298399463852197E+08, -2.088650314903967E+07,
2461673.500000000, A.D. 2027-Sep-25 00:00:00.0000, -3.250133724243714E+08, 3.250118049424720E+08, -2.082346130992274E+07,
2461680.500000000, A.D. 2027-Oct-02 00:00:00.0000, -3.303260977911785E+08, 3.200216394987072E+08, -2.075002206807917E+07,
2461687.500000000, A.D. 2027-Oct-09 00:00:00.0000, -3.354746784795145E+08, 3.148722303312306E+08, -2.066624056595528E+07,
2461694.500000000, A.D. 2027-Oct-16 00:00:00.0000, -3.404567403627193E+08, 3.095663104420208E+08, -2.057216931515594E+07,
2461701.500000000, A.D. 2027-Oct-23 00:00:00.0000, -3.452698720201017E+08, 3.041065698076891E+08, -2.046785834769323E+07,
2461708.500000000, A.D. 2027-Oct-30 00:00:00.0000, -3.499116194634425E+08, 2.984956600734391E+08, -2.035335539343023E+07,
2461715.500000000, A.D. 2027-Nov-06 00:00:00.0000, -3.543794813133381E+08, 2.927362008385631E+08, -2.022870588531110E+07,
2461722.500000000, A.D. 2027-Nov-13 00:00:00.0000, -3.586709063943005E+08, 2.868307854785836E+08, -2.009395278068665E+07,
2461729.500000000, A.D. 2027-Nov-20 00:00:00.0000, -3.627832908279246E+08, 2.807819843397226E+08, -1.994913664386018E+07,
2461736.500000000, A.D. 2027-Nov-27 00:00:00.0000, -3.667139729875609E+08, 2.745923482893167E+08, -1.979429589586510E+07,
2461743.500000000, A.D. 2027-Dec-04 00:00:00.0000, -3.704602283226941E+08, 2.682644135573407E+08, -1.962946697174026E+07,
2461750.500000000, A.D. 2027-Dec-11 00:00:00.0000, -3.740192645879324E+08, 2.618007069296637E+08, -1.945468441436811E+07,
2461757.500000000, A.D. 2027-Dec-18 00:00:00.0000, -3.773882171843201E+08, 2.552037509792504E+08, -1.926998095833376E+07,
2461764.500000000, A.D. 2027-Dec-25 00:00:00.0000, -3.805641444434139E+08, 2.484760693592831E+08, -1.907538761839961E+07,
2461771.500000000, A.D. 2028-Jan-01 00:00:00.0000, -3.835440227951704E+08, 2.416201922006651E+08, -1.887093378576627E+07,
$$EOE